*******************************************************************************
JPL/HORIZONS               181 Eucharis (A878 CB)          2020-Jun-20 08:35:43
Rec #:     181 (+COV) Soln.date: 2020-Feb-22_15:19:36   # obs: 2613 (1892-2019)
 
IAU76/J2000 helio. ecliptic osc. elements (au, days, deg., period=Julian yrs):
 
  EPOCH=  2455187.5 ! 2009-Dec-22.00 (TDB)         Residual RMS= .27402
   EC= .2021521459585838   QR= 2.496142972460997   TP= 2455393.7900490654
   OM= 143.2647180663983   W=  318.514913014469    IN= 18.88788143714003
   A= 3.128595207491054    MA= 323.2583809862948   ADIST= 3.761047442521112
   PER= 5.53391            N= .178106594           ANGMOM= .029798602
   DAN= 2.60608            DDN= 3.53627            L= 103.3472817
   B= -12.3825831          MOID= 1.54215002        TP= 2010-Jul-16.2900490654
 
Asteroid physical parameters (km, seconds, rotational period in hours):
   GM= n.a.                RAD= 57.6915            ROTPER= 52.23
   H= 7.9                  G= .150                 B-V= .815
                           ALBEDO= .101            STYP= Xk
 
ASTEROID comments: 
1: soln ref.= JPL#69, OCC=0
2: source=ORB
*******************************************************************************
 
 
*******************************************************************************
Ephemeris / WWW_USER Sat Jun 20 08:35:43 2020 Pasadena, USA      / Horizons
*******************************************************************************
Target body name: 181 Eucharis (A878 CB)          {source: JPL#69}
Center body name: Solar System Barycenter (0)     {source: DE431}
Center-site name: BODY CENTER
*******************************************************************************
Start time      : A.D. 1969-Jun-28 00:00:00.0000 TDB
Stop  time      : A.D. 2071-May-04 00:00:00.0000 TDB
Step-size       : 7200 minutes
*******************************************************************************
Center geodetic : 0.00000000,0.00000000,0.0000000 {E-lon(deg),Lat(deg),Alt(km)}
Center cylindric: 0.00000000,0.00000000,0.0000000 {E-lon(deg),Dxy(km),Dz(km)}
Center radii    : (undefined)                                                  
Small perturbers: Yes                             {source: SB431-N16}
Output units    : AU-D
Output type     : GEOMETRIC cartesian states
Output format   : 2 (position and velocity)
Reference frame : Ecliptic of J2000.0
*******************************************************************************
Initial IAU76/J2000 heliocentric ecliptic osculating elements (au, days, deg.):
  EPOCH=  2455187.5 ! 2009-Dec-22.00 (TDB)         Residual RMS= .27402        
   EC= .2021521459585838   QR= 2.496142972460997   TP= 2455393.7900490654      
   OM= 143.2647180663983   W=  318.514913014469    IN= 18.88788143714003       
  Equivalent ICRF heliocentric equatorial cartesian coordinates (au, au/d):
   X= 1.708884668992227E+00  Y= 2.064952827916038E+00  Z=-4.655562210367037E-02
  VX=-9.322406064728308E-03 VY= 5.671703682414151E-03 VZ= 2.666209614893206E-03
Asteroid physical parameters (km, seconds, rotational period in hours):        
   GM= n.a.                RAD= 57.6915            ROTPER= 52.23               
   H= 7.9                  G= .150                 B-V= .815                   
                           ALBEDO= .101            STYP= Xk                    
*******************************************************************************
            JDTDB,            Calendar Date (TDB),        delta-T,                      X,                      Y,                      Z,                     VX,                     VY,                     VZ,
******************************************************************************************************************************************************************************************************************
$$SOE
2445020.500000000, A.D. 1982-Feb-20 00:00:00.0000,      52.185244,  1.815806944648420E+00,  1.750744666613189E+00, -8.379246229584011E-01, -9.079449055265566E-03,  6.820704177711663E-03, -8.827080283431764E-05,
2445025.500000000, A.D. 1982-Feb-25 00:00:00.0000,      52.185337,  1.770051657015104E+00,  1.784497488890521E+00, -8.381986983694895E-01, -9.222281079578291E-03,  6.679753353629622E-03, -2.125020733318851E-05,
2445030.500000000, A.D. 1982-Mar-02 00:00:00.0000,      52.185419,  1.723588092937874E+00,  1.817535496360182E+00, -8.381360579262994E-01, -9.362737602172613E-03,  6.534780419237520E-03,  4.641059643116845E-05,
2445035.500000000, A.D. 1982-Mar-07 00:00:00.0000,      52.185488,  1.676428461599267E+00,  1.849838615067535E+00, -8.377335761019273E-01, -9.500685717477034E-03,  6.385800845018392E-03,  1.146811268084077E-04,
2445040.500000000, A.D. 1982-Mar-12 00:00:00.0000,      52.185545,  1.628585640075292E+00,  1.881386861037517E+00, -8.369882839233358E-01, -9.635991209038616E-03,  6.232835182379388E-03,  1.835292425957556E-04,
2445045.500000000, A.D. 1982-Mar-17 00:00:00.0000,      52.185591,  1.580073179346716E+00,  1.912160366124359E+00, -8.358973772846162E-01, -9.768518769299246E-03,  6.075909240487692E-03,  2.529211376683496E-04,
2445050.500000000, A.D. 1982-Mar-22 00:00:00.0000,      52.185627,  1.530905309173650E+00,  1.942139404726429E+00, -8.344582252743776E-01, -9.898132234477606E-03,  5.915054255281127E-03,  3.228213407520903E-04,
2445055.500000000, A.D. 1982-Mar-27 00:00:00.0000,      52.185652,  1.481096941758300E+00,  1.971304421323923E+00, -8.326683784907443E-01, -1.002469483438570E-02,  5.750307049378123E-03,  3.931927206589277E-04,
2445060.500000000, A.D. 1982-Apr-01 00:00:00.0000,      52.185664,  1.430663674121844E+00,  1.999636058790656E+00, -8.305255773158875E-01, -1.014806945690180E-02,  5.581710181595030E-03,  4.639964972854607E-04,
2445065.500000000, A.D. 1982-Apr-06 00:00:00.0000,      52.185662,  1.379621789123135E+00,  2.027115187424796E+00, -8.280277601206031E-01, -1.026811892669464E-02,  5.409312084788138E-03,  5.351922586370266E-04,
2445070.500000000, A.D. 1982-Apr-11 00:00:00.0000,      52.185647,  1.327988255049302E+00,  2.053722934636971E+00, -8.251730713682820E-01, -1.038470629761296E-02,  5.233167190759301E-03,  6.067379840678150E-04,
2445075.500000000, A.D. 1982-Apr-16 00:00:00.0000,      52.185621,  1.275780723711947E+00,  2.079440715227824E+00, -8.219598695868603E-01, -1.049769515790405E-02,  5.053336040870541E-03,  6.785900738805866E-04,
2445080.500000000, A.D. 1982-Apr-21 00:00:00.0000,      52.185584,  1.223017526987216E+00,  2.104250262179298E+00, -8.183867351762411E-01, -1.060694994731435E-02,  4.869885380583639E-03,  7.507033856392965E-04,
2445085.500000000, A.D. 1982-Apr-26 00:00:00.0000,      52.185537,  1.169717671741460E+00,  2.128133657874221E+00, -8.144524780156471E-01, -1.071233628576571E-02,  4.682888235998127E-03,  8.230312780167978E-04,
2445090.500000000, A.D. 1982-May-01 00:00:00.0000,      52.185477,  1.115900833084848E+00,  2.151073365652418E+00, -8.101561448324158E-01, -1.081372131332906E-02,  4.492423971994924E-03,  8.955256622505139E-04,
2445095.500000000, A.D. 1982-May-06 00:00:00.0000,      52.185406,  1.061587345900884E+00,  2.173052261611841E+00, -8.054970262965950E-01, -1.091097403942240E-02,  4.298578331942375E-03,  9.681370602290751E-04,
2445100.500000000, A.D. 1982-May-11 00:00:00.0000,      52.185323,  1.006798194611918E+00,  2.194053666558242E+00, -8.004746638087652E-01, -1.100396569897770E-02,  4.101443456977105E-03,  1.040814669246657E-03,
2445105.500000000, A.D. 1982-May-16 00:00:00.0000,      52.185232,  9.515550011483193E-01,  2.214061377995789E+00, -7.950888559457274E-01, -1.109257011469321E-02,  3.901117882890439E-03,  1.113506434185592E-03,
2445110.500000000, A.D. 1982-May-21 00:00:00.0000,      52.185134,  8.958800110932712E-01,  2.233059702044303E+00, -7.893396645263834E-01, -1.117666406428434E-02,  3.697706513800859E-03,  1.186159127221098E-03,
2445115.500000000, A.D. 1982-May-26 00:00:00.0000,      52.185028,  8.397960779823026E-01,  2.251033485165590E+00, -7.832274202608087E-01, -1.125612765103218E-02,  3.491320572004057E-03,  1.258718434796929E-03,
2445120.500000000, A.D. 1982-May-31 00:00:00.0000,      52.184914,  7.833266457457534E-01,  2.267968145578032E+00, -7.767527279467665E-01, -1.133084467573942E-02,  3.282077523312129E-03,  1.331129051638952E-03,
2445125.500000000, A.D. 1982-Jun-05 00:00:00.0000,      52.184792,  7.264957292919629E-01,  2.283849704235234E+00, -7.699164711790057E-01, -1.140070300816115E-02,  3.070100977244647E-03,  1.403334781588015E-03,
2445130.500000000, A.D. 1982-Jun-10 00:00:00.0000,      52.184663,  6.693278932387353E-01,  2.298664815241696E+00, -7.627198165378668E-01, -1.146559495592819E-02,  2.855520561572025E-03,  1.475278644997793E-03,
2445135.500000000, A.D. 1982-Jun-15 00:00:00.0000,      52.184531,  6.118482288106905E-01,  2.312400795576343E+00, -7.551642172251196E-01, -1.152541762892419E-02,  2.638471770878481E-03,  1.546902992387383E-03,
2445140.500000000, A.D. 1982-Jun-20 00:00:00.0000,      52.184396,  5.540823289304410E-01,  2.325045653993566E+00, -7.472514161166636E-01, -1.158007329702761E-02,  2.419095788991559E-03,  1.618149623977801E-03,
2445145.500000000, A.D. 1982-Jun-25 00:00:00.0000,      52.184260,  4.960562615420620E-01,  2.336588118971104E+00, -7.389834482037161E-01, -1.162946973909654E-02,  2.197539285313936E-03,  1.688959914680713E-03,
2445150.500000000, A.D. 1982-Jun-30 00:00:00.0000,      52.184120,  4.377965412159765E-01,  2.347017665574801E+00, -7.303626423964493E-01, -1.167352058106336E-02,  1.973954185296089E-03,  1.759274944045463E-03,
2445155.500000000, A.D. 1982-Jul-05 00:00:00.0000,      53.183978,  3.793300990950111E-01,  2.356324541111999E+00, -7.213916226666528E-01, -1.171214562102004E-02,  1.748497415518370E-03,  1.829035630598356E-03,
